UNKNOWN                 
1 89251U          25324.31672590  .00004752  00000+0  27733-2 0  9995
2 89251  62.4793  32.7249 2837713  98.6235 294.2229  9.24204041371118
UNKNOWN                 
1 89261U          25321.72387146  .00001589  00000+0  48611-3 0  9992
2 89261  98.1529 317.2144 0011828 232.5328 127.4788 14.43045649530206
UNKNOWN                 
1 89304U          25322.48426478  .00008512  00000+0  11128-1 0  9990
2 89304  84.3673 110.4079 2843978  17.0176  26.6291  9.02658015436210
UNKNOWN                 
1 89349U          25324.37692298 -.00000090  00000+0 -33966-3 0  9995
2 89349  90.2468   6.8541 0028198 326.7571  33.1777 12.96233708475855
UNKNOWN                 
1 89379U          25323.28903089  .00005058  00000+0  65318-2 0  9992
2 89379 100.4829 336.8196 0044658 186.7229 173.3315 13.62458954577582
UNKNOWN                 
1 89395U          25317.36080865  .00000350  00000+0  44311-2 0  9990
2 89395 102.3610 287.2462 0220207 174.5270 350.2300 12.01508003521213
UNKNOWN                 
1 89403U          25324.36609696  .00000220  00000+0  71778-3 0  9991
2 89403  90.2504   5.3028 0026779 273.8771  97.9861 12.98723557474925
UNKNOWN                 
1 89484U          25324.55831117  .00034305  00000+0  27479-1 0  9994
2 89484  84.1095 161.0531 2858132  55.9073 328.1148  9.12719580353412
UNKNOWN                 
1 89493U          25323.12633936  .00003148  00000+0  15628-2 0  9990
2 89493  99.0290  31.6744 0082812 107.8678 253.1548 14.16089705460602
UNKNOWN                 
1 89494U          25324.45144819  .00002486  00000+0  12399-2 0  9991
2 89494  99.0288  32.9056 0083160 104.2232 256.8197 14.16028961460645
