CCSDS_OMM_VERS = 2.0
CREATION_DATE  = 
ORIGINATOR     = 

OBJECT_NAME    = UNKNOWN
OBJECT_ID      = 
CENTER_NAME    = EARTH
REF_FRAME      = TEME
TIME_SYSTEM    = UTC
MEAN_ELEMENT_THEORY = SGP/SGP4

EPOCH          = 2025-11-20T07:36:05.117760
MEAN_MOTION    = 9.24204041
ECCENTRICITY   = .2837713
INCLINATION    = 62.4793
RA_OF_ASC_NODE = 32.7249
ARG_OF_PERICENTER = 98.6235
MEAN_ANOMALY   = 294.2229

EPHEMERIS_TYPE = 0
CLASSIFICATION_TYPE = U
NORAD_CAT_ID   = 89251
ELEMENT_SET_NO = 999
REV_AT_EPOCH   = 37111
BSTAR          = .27733E-2
MEAN_MOTION_DOT = .4752E-4
MEAN_MOTION_DDOT = 0

CCSDS_OMM_VERS = 2.0
CREATION_DATE  = 
ORIGINATOR     = 

OBJECT_NAME    = UNKNOWN
OBJECT_ID      = 
CENTER_NAME    = EARTH
REF_FRAME      = TEME
TIME_SYSTEM    = UTC
MEAN_ELEMENT_THEORY = SGP/SGP4

EPOCH          = 2025-11-17T17:22:22.494144
MEAN_MOTION    = 14.43045649
ECCENTRICITY   = .0011828
INCLINATION    = 98.1529
RA_OF_ASC_NODE = 317.2144
ARG_OF_PERICENTER = 232.5328
MEAN_ANOMALY   = 127.4788

EPHEMERIS_TYPE = 0
CLASSIFICATION_TYPE = U
NORAD_CAT_ID   = 89261
ELEMENT_SET_NO = 999
REV_AT_EPOCH   = 53020
BSTAR          = .48611E-3
MEAN_MOTION_DOT = .1589E-4
MEAN_MOTION_DDOT = 0

CCSDS_OMM_VERS = 2.0
CREATION_DATE  = 
ORIGINATOR     = 

OBJECT_NAME    = UNKNOWN
OBJECT_ID      = 
CENTER_NAME    = EARTH
REF_FRAME      = TEME
TIME_SYSTEM    = UTC
MEAN_ELEMENT_THEORY = SGP/SGP4

EPOCH          = 2025-11-18T11:37:20.476992
MEAN_MOTION    = 9.02658015
ECCENTRICITY   = .2843978
INCLINATION    = 84.3673
RA_OF_ASC_NODE = 110.4079
ARG_OF_PERICENTER = 17.0176
MEAN_ANOMALY   = 26.6291

EPHEMERIS_TYPE = 0
CLASSIFICATION_TYPE = U
NORAD_CAT_ID   = 89304
ELEMENT_SET_NO = 999
REV_AT_EPOCH   = 43621
BSTAR          = .11128E-1
MEAN_MOTION_DOT = .8512E-4
MEAN_MOTION_DDOT = 0

CCSDS_OMM_VERS = 2.0
CREATION_DATE  = 
ORIGINATOR     = 

OBJECT_NAME    = UNKNOWN
OBJECT_ID      = 
CENTER_NAME    = EARTH
REF_FRAME      = TEME
TIME_SYSTEM    = UTC
MEAN_ELEMENT_THEORY = SGP/SGP4

EPOCH          = 2025-11-20T09:02:46.145472
MEAN_MOTION    = 12.96233708
ECCENTRICITY   = .0028198
INCLINATION    = 90.2468
RA_OF_ASC_NODE = 6.8541
ARG_OF_PERICENTER = 326.7571
MEAN_ANOMALY   = 33.1777

EPHEMERIS_TYPE = 0
CLASSIFICATION_TYPE = U
NORAD_CAT_ID   = 89349
ELEMENT_SET_NO = 999
REV_AT_EPOCH   = 47585
BSTAR          = -.33966E-3
MEAN_MOTION_DOT = -.9E-6
MEAN_MOTION_DDOT = 0

CCSDS_OMM_VERS = 2.0
CREATION_DATE  = 
ORIGINATOR     = 

OBJECT_NAME    = UNKNOWN
OBJECT_ID      = 
CENTER_NAME    = EARTH
REF_FRAME      = TEME
TIME_SYSTEM    = UTC
MEAN_ELEMENT_THEORY = SGP/SGP4

EPOCH          = 2025-11-19T06:56:12.268896
MEAN_MOTION    = 13.62458954
ECCENTRICITY   = .0044658
INCLINATION    = 100.4829
RA_OF_ASC_NODE = 336.8196
ARG_OF_PERICENTER = 186.7229
MEAN_ANOMALY   = 173.3315

EPHEMERIS_TYPE = 0
CLASSIFICATION_TYPE = U
NORAD_CAT_ID   = 89379
ELEMENT_SET_NO = 999
REV_AT_EPOCH   = 57758
BSTAR          = .65318E-2
MEAN_MOTION_DOT = .5058E-4
MEAN_MOTION_DDOT = 0

CCSDS_OMM_VERS = 2.0
CREATION_DATE  = 
ORIGINATOR     = 

OBJECT_NAME    = UNKNOWN
OBJECT_ID      = 
CENTER_NAME    = EARTH
REF_FRAME      = TEME
TIME_SYSTEM    = UTC
MEAN_ELEMENT_THEORY = SGP/SGP4

EPOCH          = 2025-11-13T08:39:33.867360
MEAN_MOTION    = 12.01508003
ECCENTRICITY   = .0220207
INCLINATION    = 102.3610
RA_OF_ASC_NODE = 287.2462
ARG_OF_PERICENTER = 174.5270
MEAN_ANOMALY   = 350.2300

EPHEMERIS_TYPE = 0
CLASSIFICATION_TYPE = U
NORAD_CAT_ID   = 89395
ELEMENT_SET_NO = 999
REV_AT_EPOCH   = 52121
BSTAR          = .44311E-2
MEAN_MOTION_DOT = .35E-5
MEAN_MOTION_DDOT = 0

CCSDS_OMM_VERS = 2.0
CREATION_DATE  = 
ORIGINATOR     = 

OBJECT_NAME    = UNKNOWN
OBJECT_ID      = 
CENTER_NAME    = EARTH
REF_FRAME      = TEME
TIME_SYSTEM    = UTC
MEAN_ELEMENT_THEORY = SGP/SGP4

EPOCH          = 2025-11-20T08:47:10.777344
MEAN_MOTION    = 12.98723557
ECCENTRICITY   = .0026779
INCLINATION    = 90.2504
RA_OF_ASC_NODE = 5.3028
ARG_OF_PERICENTER = 273.8771
MEAN_ANOMALY   = 97.9861

EPHEMERIS_TYPE = 0
CLASSIFICATION_TYPE = U
NORAD_CAT_ID   = 89403
ELEMENT_SET_NO = 999
REV_AT_EPOCH   = 47492
BSTAR          = .71778E-3
MEAN_MOTION_DOT = .22E-5
MEAN_MOTION_DDOT = 0

CCSDS_OMM_VERS = 2.0
CREATION_DATE  = 
ORIGINATOR     = 

OBJECT_NAME    = UNKNOWN
OBJECT_ID      = 
CENTER_NAME    = EARTH
REF_FRAME      = TEME
TIME_SYSTEM    = UTC
MEAN_ELEMENT_THEORY = SGP/SGP4

EPOCH          = 2025-11-20T13:23:58.085088
MEAN_MOTION    = 9.12719580
ECCENTRICITY   = .2858132
INCLINATION    = 84.1095
RA_OF_ASC_NODE = 161.0531
ARG_OF_PERICENTER = 55.9073
MEAN_ANOMALY   = 328.1148

EPHEMERIS_TYPE = 0
CLASSIFICATION_TYPE = U
NORAD_CAT_ID   = 89484
ELEMENT_SET_NO = 999
REV_AT_EPOCH   = 35341
BSTAR          = .27479E-1
MEAN_MOTION_DOT = .34305E-3
MEAN_MOTION_DDOT = 0

CCSDS_OMM_VERS = 2.0
CREATION_DATE  = 
ORIGINATOR     = 

OBJECT_NAME    = UNKNOWN
OBJECT_ID      = 
CENTER_NAME    = EARTH
REF_FRAME      = TEME
TIME_SYSTEM    = UTC
MEAN_ELEMENT_THEORY = SGP/SGP4

EPOCH          = 2025-11-19T03:01:55.720704
MEAN_MOTION    = 14.16089705
ECCENTRICITY   = .0082812
INCLINATION    = 99.0290
RA_OF_ASC_NODE = 31.6744
ARG_OF_PERICENTER = 107.8678
MEAN_ANOMALY   = 253.1548

EPHEMERIS_TYPE = 0
CLASSIFICATION_TYPE = U
NORAD_CAT_ID   = 89493
ELEMENT_SET_NO = 999
REV_AT_EPOCH   = 46060
BSTAR          = .15628E-2
MEAN_MOTION_DOT = .3148E-4
MEAN_MOTION_DDOT = 0

CCSDS_OMM_VERS = 2.0
CREATION_DATE  = 
ORIGINATOR     = 

OBJECT_NAME    = UNKNOWN
OBJECT_ID      = 
CENTER_NAME    = EARTH
REF_FRAME      = TEME
TIME_SYSTEM    = UTC
MEAN_ELEMENT_THEORY = SGP/SGP4

EPOCH          = 2025-11-20T10:50:05.123616
MEAN_MOTION    = 14.16028961
ECCENTRICITY   = .008316
INCLINATION    = 99.0288
RA_OF_ASC_NODE = 32.9056
ARG_OF_PERICENTER = 104.2232
MEAN_ANOMALY   = 256.8197

EPHEMERIS_TYPE = 0
CLASSIFICATION_TYPE = U
NORAD_CAT_ID   = 89494
ELEMENT_SET_NO = 999
REV_AT_EPOCH   = 46064
BSTAR          = .12399E-2
MEAN_MOTION_DOT = .2486E-4
MEAN_MOTION_DDOT = 0

